STARLINK-36557          
1 67500U 26012H   26036.75002315 -.01860962  00000+0 -13367-1 0  9993
2 67500  42.9991 137.2468 0001082 284.4725 261.2343 15.75900385  3937
STARLINK-36433          
1 67501U 26012J   26036.75002315 -.01852544  00000+0 -13087-1 0  9990
2 67501  42.9979 137.2313 0001309 287.5134 264.2367 15.76255290  3931
STARLINK-36554          
1 67502U 26012K   26035.19922448  .00310471  00000+0  16298-2 0  9999
2 67502  42.9954 146.7031 0004802 241.1583 118.8805 15.79080584  2601
STARLINK-36552          
1 67503U 26012L   26036.75002315 -.01859609  00000+0 -12554-1 0  9999
2 67503  42.9989 137.1978 0001078 280.7007 284.4590 15.77279565  3931
STARLINK-36512          
1 67504U 26012M   26036.75002315 -.01852912  00000+0 -13676-1 0  9996
2 67504  42.9985 137.2088 0001294 284.6377 275.9896 15.75271844  3938
STARLINK-36545          
1 67505U 26012N   26036.75002315 -.01858687  00000+0 -13383-1 0  9997
2 67505  42.9989 137.1935 0001208 285.0272 281.7890 15.75840184  3935
STARLINK-36553          
1 67506U 26012P   26036.75002315 -.01859213  00000+0 -12602-1 0  9997
2 67506  42.9989 137.1669 0001241 282.5961 294.9261 15.77188454  3939
STARLINK-36521          
1 67507U 26012Q   26036.75002315 -.01850316  00000+0 -12563-1 0  9999
2 67507  42.9977 137.1532 0001313 283.5440 299.2239 15.77134035  3938
STARLINK-36526          
1 67508U 26012R   26036.75002315 -.01858498  00000+0 -12635-1 0  9999
2 67508  42.9987 137.1389 0001066 273.1276 315.2614 15.77122721  3932
STARLINK-36541          
1 67509U 26012S   26036.75002315 -.02312903  00000+0 -30672-1 0  9998
2 67509  42.9993 137.5611 0001547 285.1350 134.1196 15.60800671  3877
STARLINK-36549          
1 67510U 26012T   26036.75002315 -.01846280  00000+0 -13432-1 0  9994
2 67510  42.9980 136.9302 0001437 277.2455  32.9721 15.75583566  3877
STARLINK-36540          
1 67511U 26012U   26036.75002315 -.02346369  00000+0 -30962-1 0  9996
2 67511  42.9995 137.5412 0001446 288.7583 138.7535 15.60980495  3933
