CCSDS_OMM_VERS = 2.0
CREATION_DATE  = 
ORIGINATOR     = 

OBJECT_NAME    = STARLINK-36557
OBJECT_ID      = 2026-012H
CENTER_NAME    = EARTH
REF_FRAME      = TEME
TIME_SYSTEM    = UTC
MEAN_ELEMENT_THEORY = SGP/SGP4

EPOCH          = 2026-02-05T18:00:02.000160
MEAN_MOTION    = 15.75900385
ECCENTRICITY   = .00010825
INCLINATION    = 42.9991
RA_OF_ASC_NODE = 137.2468
ARG_OF_PERICENTER = 284.4725
MEAN_ANOMALY   = 261.2343

EPHEMERIS_TYPE = 0
CLASSIFICATION_TYPE = U
NORAD_CAT_ID   = 67500
ELEMENT_SET_NO = 999
REV_AT_EPOCH   = 393
BSTAR          = -.13367248E-1
MEAN_MOTION_DOT = -.1860962E-1
MEAN_MOTION_DDOT = 0

CCSDS_OMM_VERS = 2.0
CREATION_DATE  = 
ORIGINATOR     = 

OBJECT_NAME    = STARLINK-36433
OBJECT_ID      = 2026-012J
CENTER_NAME    = EARTH
REF_FRAME      = TEME
TIME_SYSTEM    = UTC
MEAN_ELEMENT_THEORY = SGP/SGP4

EPOCH          = 2026-02-05T18:00:02.000160
MEAN_MOTION    = 15.76255290
ECCENTRICITY   = .00013096
INCLINATION    = 42.9979
RA_OF_ASC_NODE = 137.2313
ARG_OF_PERICENTER = 287.5134
MEAN_ANOMALY   = 264.2367

EPHEMERIS_TYPE = 0
CLASSIFICATION_TYPE = U
NORAD_CAT_ID   = 67501
ELEMENT_SET_NO = 999
REV_AT_EPOCH   = 393
BSTAR          = -.13087011E-1
MEAN_MOTION_DOT = -.1852544E-1
MEAN_MOTION_DDOT = 0

CCSDS_OMM_VERS = 2.0
CREATION_DATE  = 
ORIGINATOR     = 

OBJECT_NAME    = STARLINK-36554
OBJECT_ID      = 2026-012K
CENTER_NAME    = EARTH
REF_FRAME      = TEME
TIME_SYSTEM    = UTC
MEAN_ELEMENT_THEORY = SGP/SGP4

EPOCH          = 2026-02-04T04:46:52.995072
MEAN_MOTION    = 15.79080584
ECCENTRICITY   = .0004802
INCLINATION    = 42.9954
RA_OF_ASC_NODE = 146.7031
ARG_OF_PERICENTER = 241.1583
MEAN_ANOMALY   = 118.8805

EPHEMERIS_TYPE = 0
CLASSIFICATION_TYPE = U
NORAD_CAT_ID   = 67502
ELEMENT_SET_NO = 999
REV_AT_EPOCH   = 260
BSTAR          = .16298E-2
MEAN_MOTION_DOT = .310471E-2
MEAN_MOTION_DDOT = 0

CCSDS_OMM_VERS = 2.0
CREATION_DATE  = 
ORIGINATOR     = 

OBJECT_NAME    = STARLINK-36552
OBJECT_ID      = 2026-012L
CENTER_NAME    = EARTH
REF_FRAME      = TEME
TIME_SYSTEM    = UTC
MEAN_ELEMENT_THEORY = SGP/SGP4

EPOCH          = 2026-02-05T18:00:02.000160
MEAN_MOTION    = 15.77279565
ECCENTRICITY   = .00010783
INCLINATION    = 42.9989
RA_OF_ASC_NODE = 137.1978
ARG_OF_PERICENTER = 280.7007
MEAN_ANOMALY   = 284.4590

EPHEMERIS_TYPE = 0
CLASSIFICATION_TYPE = U
NORAD_CAT_ID   = 67503
ELEMENT_SET_NO = 999
REV_AT_EPOCH   = 393
BSTAR          = -.12554265E-1
MEAN_MOTION_DOT = -.1859609E-1
MEAN_MOTION_DDOT = 0

CCSDS_OMM_VERS = 2.0
CREATION_DATE  = 
ORIGINATOR     = 

OBJECT_NAME    = STARLINK-36512
OBJECT_ID      = 2026-012M
CENTER_NAME    = EARTH
REF_FRAME      = TEME
TIME_SYSTEM    = UTC
MEAN_ELEMENT_THEORY = SGP/SGP4

EPOCH          = 2026-02-05T18:00:02.000160
MEAN_MOTION    = 15.75271844
ECCENTRICITY   = .00012948
INCLINATION    = 42.9985
RA_OF_ASC_NODE = 137.2088
ARG_OF_PERICENTER = 284.6377
MEAN_ANOMALY   = 275.9896

EPHEMERIS_TYPE = 0
CLASSIFICATION_TYPE = U
NORAD_CAT_ID   = 67504
ELEMENT_SET_NO = 999
REV_AT_EPOCH   = 393
BSTAR          = -.13676175E-1
MEAN_MOTION_DOT = -.1852912E-1
MEAN_MOTION_DDOT = 0

CCSDS_OMM_VERS = 2.0
CREATION_DATE  = 
ORIGINATOR     = 

OBJECT_NAME    = STARLINK-36545
OBJECT_ID      = 2026-012N
CENTER_NAME    = EARTH
REF_FRAME      = TEME
TIME_SYSTEM    = UTC
MEAN_ELEMENT_THEORY = SGP/SGP4

EPOCH          = 2026-02-05T18:00:02.000160
MEAN_MOTION    = 15.75840184
ECCENTRICITY   = .00012087
INCLINATION    = 42.9989
RA_OF_ASC_NODE = 137.1935
ARG_OF_PERICENTER = 285.0272
MEAN_ANOMALY   = 281.7890

EPHEMERIS_TYPE = 0
CLASSIFICATION_TYPE = U
NORAD_CAT_ID   = 67505
ELEMENT_SET_NO = 999
REV_AT_EPOCH   = 393
BSTAR          = -.1338344E-1
MEAN_MOTION_DOT = -.1858687E-1
MEAN_MOTION_DDOT = 0

CCSDS_OMM_VERS = 2.0
CREATION_DATE  = 
ORIGINATOR     = 

OBJECT_NAME    = STARLINK-36553
OBJECT_ID      = 2026-012P
CENTER_NAME    = EARTH
REF_FRAME      = TEME
TIME_SYSTEM    = UTC
MEAN_ELEMENT_THEORY = SGP/SGP4

EPOCH          = 2026-02-05T18:00:02.000160
MEAN_MOTION    = 15.77188454
ECCENTRICITY   = .00012417
INCLINATION    = 42.9989
RA_OF_ASC_NODE = 137.1669
ARG_OF_PERICENTER = 282.5961
MEAN_ANOMALY   = 294.9261

EPHEMERIS_TYPE = 0
CLASSIFICATION_TYPE = U
NORAD_CAT_ID   = 67506
ELEMENT_SET_NO = 999
REV_AT_EPOCH   = 393
BSTAR          = -.12601852E-1
MEAN_MOTION_DOT = -.1859213E-1
MEAN_MOTION_DDOT = 0

CCSDS_OMM_VERS = 2.0
CREATION_DATE  = 
ORIGINATOR     = 

OBJECT_NAME    = STARLINK-36521
OBJECT_ID      = 2026-012Q
CENTER_NAME    = EARTH
REF_FRAME      = TEME
TIME_SYSTEM    = UTC
MEAN_ELEMENT_THEORY = SGP/SGP4

EPOCH          = 2026-02-05T18:00:02.000160
MEAN_MOTION    = 15.77134035
ECCENTRICITY   = .00013135
INCLINATION    = 42.9977
RA_OF_ASC_NODE = 137.1532
ARG_OF_PERICENTER = 283.5440
MEAN_ANOMALY   = 299.2239

EPHEMERIS_TYPE = 0
CLASSIFICATION_TYPE = U
NORAD_CAT_ID   = 67507
ELEMENT_SET_NO = 999
REV_AT_EPOCH   = 393
BSTAR          = -.12562931E-1
MEAN_MOTION_DOT = -.1850316E-1
MEAN_MOTION_DDOT = 0

CCSDS_OMM_VERS = 2.0
CREATION_DATE  = 
ORIGINATOR     = 

OBJECT_NAME    = STARLINK-36526
OBJECT_ID      = 2026-012R
CENTER_NAME    = EARTH
REF_FRAME      = TEME
TIME_SYSTEM    = UTC
MEAN_ELEMENT_THEORY = SGP/SGP4

EPOCH          = 2026-02-05T18:00:02.000160
MEAN_MOTION    = 15.77122721
ECCENTRICITY   = .00010662
INCLINATION    = 42.9987
RA_OF_ASC_NODE = 137.1389
ARG_OF_PERICENTER = 273.1276
MEAN_ANOMALY   = 315.2614

EPHEMERIS_TYPE = 0
CLASSIFICATION_TYPE = U
NORAD_CAT_ID   = 67508
ELEMENT_SET_NO = 999
REV_AT_EPOCH   = 393
BSTAR          = -.1263489E-1
MEAN_MOTION_DOT = -.1858498E-1
MEAN_MOTION_DDOT = 0

CCSDS_OMM_VERS = 2.0
CREATION_DATE  = 
ORIGINATOR     = 

OBJECT_NAME    = STARLINK-36541
OBJECT_ID      = 2026-012S
CENTER_NAME    = EARTH
REF_FRAME      = TEME
TIME_SYSTEM    = UTC
MEAN_ELEMENT_THEORY = SGP/SGP4

EPOCH          = 2026-02-05T18:00:02.000160
MEAN_MOTION    = 15.60800671
ECCENTRICITY   = .00015476
INCLINATION    = 42.9993
RA_OF_ASC_NODE = 137.5611
ARG_OF_PERICENTER = 285.1350
MEAN_ANOMALY   = 134.1196

EPHEMERIS_TYPE = 0
CLASSIFICATION_TYPE = U
NORAD_CAT_ID   = 67509
ELEMENT_SET_NO = 999
REV_AT_EPOCH   = 387
BSTAR          = -.30672238E-1
MEAN_MOTION_DOT = -.2312903E-1
MEAN_MOTION_DDOT = 0

CCSDS_OMM_VERS = 2.0
CREATION_DATE  = 
ORIGINATOR     = 

OBJECT_NAME    = STARLINK-36549
OBJECT_ID      = 2026-012T
CENTER_NAME    = EARTH
REF_FRAME      = TEME
TIME_SYSTEM    = UTC
MEAN_ELEMENT_THEORY = SGP/SGP4

EPOCH          = 2026-02-05T18:00:02.000160
MEAN_MOTION    = 15.75583566
ECCENTRICITY   = .00014373
INCLINATION    = 42.9980
RA_OF_ASC_NODE = 136.9302
ARG_OF_PERICENTER = 277.2455
MEAN_ANOMALY   = 32.9721

EPHEMERIS_TYPE = 0
CLASSIFICATION_TYPE = U
NORAD_CAT_ID   = 67510
ELEMENT_SET_NO = 999
REV_AT_EPOCH   = 387
BSTAR          = -.13431724E-1
MEAN_MOTION_DOT = -.184628E-1
MEAN_MOTION_DDOT = 0

CCSDS_OMM_VERS = 2.0
CREATION_DATE  = 
ORIGINATOR     = 

OBJECT_NAME    = STARLINK-36540
OBJECT_ID      = 2026-012U
CENTER_NAME    = EARTH
REF_FRAME      = TEME
TIME_SYSTEM    = UTC
MEAN_ELEMENT_THEORY = SGP/SGP4

EPOCH          = 2026-02-05T18:00:02.000160
MEAN_MOTION    = 15.60980495
ECCENTRICITY   = .00014469
INCLINATION    = 42.9995
RA_OF_ASC_NODE = 137.5412
ARG_OF_PERICENTER = 288.7583
MEAN_ANOMALY   = 138.7535

EPHEMERIS_TYPE = 0
CLASSIFICATION_TYPE = U
NORAD_CAT_ID   = 67511
ELEMENT_SET_NO = 999
REV_AT_EPOCH   = 393
BSTAR          = -.30961837E-1
MEAN_MOTION_DOT = -.2346369E-1
MEAN_MOTION_DDOT = 0

